start=new Date('2022-09-15T00:00:00.000Z').valueOf();
sats=[{"INCLINATION":"53.0574","TLE_LINE1":"1 47563U 21009R   22257.62695312  .00003202  00000-0  23395-3 0  9991","SITE":"AFETR","ECCENTRICITY":"0.00015360","MEAN_MOTION_DOT":"0.00003202","BSTAR":"0.00023395000000","PERIAPSIS":"546.242","GP_ID":"212611345","MEAN_MOTION_DDOT":"0.0000000000000","ELEMENT_SET_NO":"999","OBJECT_NAME":"STARLINK-1962","RA_OF_ASC_NODE":"332.1377","ARG_OF_PERICENTER":"97.2019","REV_AT_EPOCH":"8906","EPOCH":"2022-09-14T15:02:48.749568","MEAN_ELEMENT_THEORY":"SGP4","FILE":"3574287","RCS_SIZE":"LARGE","DECAY_DATE":null,"REF_FRAME":"TEME","COUNTRY_CODE":"US","EPHEMERIS_TYPE":"0","CLASSIFICATION_TYPE":"U","SEMIMAJOR_AXIS":"6925.440","OBJECT_ID":"2021-009R","TLE_LINE2":"2 47563  53.0574 332.1377 0001536  97.2019 262.9145 15.06370018 89063","TIME_SYSTEM":"UTC","NORAD_CAT_ID":"47563","LAUNCH_DATE":"2021-02-04","OBJECT_TYPE":"PAYLOAD","MEAN_ANOMALY":"262.9145","CENTER_NAME":"EARTH","APOAPSIS":"548.369","MEAN_MOTION":"15.06370018","PERIOD":"95.594"},{"MEAN_MOTION":"15.06399221","PERIOD":"95.592","CENTER_NAME":"EARTH","APOAPSIS":"548.203","MEAN_ANOMALY":"279.9223","OBJECT_TYPE":"PAYLOAD","NORAD_CAT_ID":"47564","LAUNCH_DATE":"2021-02-04","TIME_SYSTEM":"UTC","TLE_LINE2":"2 47564  53.0546 321.8387 0001425  80.1926 279.9223 15.06399221 89213","SEMIMAJOR_AXIS":"6925.351","OBJECT_ID":"2021-009S","CLASSIFICATION_TYPE":"U","EPHEMERIS_TYPE":"0","COUNTRY_CODE":"US","RCS_SIZE":"LARGE","REF_FRAME":"TEME","DECAY_DATE":null,"EPOCH":"2022-09-14T16:39:39.344832","FILE":"3574287","MEAN_ELEMENT_THEORY":"SGP4","ARG_OF_PERICENTER":"80.1926","RA_OF_ASC_NODE":"321.8387","REV_AT_EPOCH":"8921","OBJECT_NAME":"STARLINK-1963","ELEMENT_SET_NO":"999","MEAN_MOTION_DDOT":"0.0000000000000","GP_ID":"212611093","PERIAPSIS":"546.229","MEAN_MOTION_DOT":"0.00001114","BSTAR":"0.00009364600000","ECCENTRICITY":"0.00014250","TLE_LINE1":"1 47564U 21009S   22257.69420538  .00001114  00000-0  93646-4 0  9992","SITE":"AFETR","INCLINATION":"53.0546"},{"MEAN_MOTION_DDOT":"0.0000000000000","MEAN_MOTION_DOT":"0.00000446","BSTAR":"0.00004886700000","GP_ID":"212581679","PERIAPSIS":"546.223","TLE_LINE1":"1 47565U 21009T   22257.55782994  .00000446  00000-0  48867-4 0  9997","SITE":"AFETR","ECCENTRICITY":"0.00014700","INCLINATION":"53.0553","COUNTRY_CODE":"US","EPHEMERIS_TYPE":"0","CLASSIFICATION_TYPE":"U","EPOCH":"2022-09-14T13:23:16.506816","FILE":"3574027","MEAN_ELEMENT_THEORY":"SGP4","RCS_SIZE":"LARGE","REF_FRAME":"TEME","DECAY_DATE":null,"ARG_OF_PERICENTER":"82.2047","REV_AT_EPOCH":"8919","RA_OF_ASC_NODE":"322.4432","ELEMENT_SET_NO":"999","OBJECT_NAME":"STARLINK-1964","TLE_LINE2":"2 47565  53.0553 322.4432 0001470  82.2047 277.9109 15.06390943 89197","TIME_SYSTEM":"UTC","OBJECT_ID":"2021-009T","SEMIMAJOR_AXIS":"6925.376","CENTER_NAME":"EARTH","APOAPSIS":"548.259","MEAN_MOTION":"15.06390943","PERIOD":"95.593","MEAN_ANOMALY":"277.9109","NORAD_CAT_ID":"47565","LAUNCH_DATE":"2021-02-04","OBJECT_TYPE":"PAYLOAD"},{"CLASSIFICATION_TYPE":"U","COUNTRY_CODE":"US","EPHEMERIS_TYPE":"0","RCS_SIZE":"LARGE","REF_FRAME":"TEME","DECAY_DATE":null,"EPOCH":"2022-09-14T10:02:55.189248","FILE":"3574027","MEAN_ELEMENT_THEORY":"SGP4","RA_OF_ASC_NODE":"313.0751","REV_AT_EPOCH":"8931","ARG_OF_PERICENTER":"81.9328","OBJECT_NAME":"STARLINK-1965","ELEMENT_SET_NO":"999","MEAN_MOTION_DDOT":"0.0000000000000","PERIAPSIS":"546.331","GP_ID":"212581430","MEAN_MOTION_DOT":"-0.00002236","BSTAR":"-0.00013129000000","ECCENTRICITY":"0.00013360","TLE_LINE1":"1 47566U 21009U   22257.41869432 -.00002236  00000-0 -13129-3 0  9999","SITE":"AFETR","INCLINATION":"53.0549","MEAN_MOTION":"15.06386193","PERIOD":"95.593","APOAPSIS":"548.181","CENTER_NAME":"EARTH","MEAN_ANOMALY":"278.1812","OBJECT_TYPE":"PAYLOAD","NORAD_CAT_ID":"47566","LAUNCH_DATE":"2021-02-04","TLE_LINE2":"2 47566  53.0549 313.0751 0001336  81.9328 278.1812 15.06386193 89312","TIME_SYSTEM":"UTC","OBJECT_ID":"2021-009U","SEMIMAJOR_AXIS":"6925.391"},{"OBJECT_ID":"2021-009V","SEMIMAJOR_AXIS":"6925.352","TLE_LINE2":"2 47567  53.0560 352.6081 0001175  70.6999 289.4117 15.06398776 88762","TIME_SYSTEM":"UTC","LAUNCH_DATE":"2021-02-04","NORAD_CAT_ID":"47567","OBJECT_TYPE":"PAYLOAD","MEAN_ANOMALY":"289.4117","APOAPSIS":"548.031","CENTER_NAME":"EARTH","PERIOD":"95.592","MEAN_MOTION":"15.06398776","INCLINATION":"53.0560","SITE":"AFETR","TLE_LINE1":"1 47567U 21009V   22257.52188228  .00000580  00000-0  57838-4 0  9993","ECCENTRICITY":"0.00011750","BSTAR":"0.00005783800000","MEAN_MOTION_DOT":"0.00000580","PERIAPSIS":"546.404","GP_ID":"212580178","MEAN_MOTION_DDOT":"0.0000000000000","ELEMENT_SET_NO":"999","OBJECT_NAME":"STARLINK-1966","ARG_OF_PERICENTER":"70.6999","RA_OF_ASC_NODE":"352.6081","REV_AT_EPOCH":"8876","FILE":"3574027","MEAN_ELEMENT_THEORY":"SGP4","EPOCH":"2022-09-14T12:31:30.628992","REF_FRAME":"TEME","DECAY_DATE":null,"RCS_SIZE":"LARGE","COUNTRY_CODE":"US","EPHEMERIS_TYPE":"0","CLASSIFICATION_TYPE":"U"},{"OBJECT_ID":"2021-009W","SEMIMAJOR_AXIS":"6925.377","TIME_SYSTEM":"UTC","TLE_LINE2":"2 47568  53.0564 351.6008 0001504  76.9667 283.1490 15.06390755 88801","PERIOD":"95.593","MEAN_MOTION":"15.06390755","APOAPSIS":"548.283","CENTER_NAME":"EARTH","OBJECT_TYPE":"PAYLOAD","LAUNCH_DATE":"2021-02-04","NORAD_CAT_ID":"47568","MEAN_ANOMALY":"283.1490","PERIAPSIS":"546.200","GP_ID":"212611593","BSTAR":"0.00003736600000","MEAN_MOTION_DOT":"0.00000275","MEAN_MOTION_DDOT":"0.0000000000000","INCLINATION":"53.0564","ECCENTRICITY":"0.00015040","SITE":"AFETR","TLE_LINE1":"1 47568U 21009W   22257.74673449  .00000275  00000-0  37366-4 0  9997","DECAY_DATE":null,"REF_FRAME":"TEME","RCS_SIZE":"LARGE","MEAN_ELEMENT_THEORY":"SGP4","FILE":"3574287","EPOCH":"2022-09-14T17:55:17.859936","CLASSIFICATION_TYPE":"U","EPHEMERIS_TYPE":"0","COUNTRY_CODE":"US","OBJECT_NAME":"STARLINK-1967","ELEMENT_SET_NO":"999","REV_AT_EPOCH":"8880","ARG_OF_PERICENTER":"76.9667","RA_OF_ASC_NODE":"351.6008"},{"RA_OF_ASC_NODE":"228.9244","ARG_OF_PERICENTER":"115.3563","REV_AT_EPOCH":"9052","ELEMENT_SET_NO":"999","OBJECT_NAME":"STARLINK-1968","EPHEMERIS_TYPE":"0","COUNTRY_CODE":"US","CLASSIFICATION_TYPE":"U","EPOCH":"2022-09-14T13:14:29.224896","MEAN_ELEMENT_THEORY":"SGP4","FILE":"3574027","RCS_SIZE":"LARGE","REF_FRAME":"TEME","DECAY_DATE":null,"TLE_LINE1":"1 47569U 21009X   22257.55172714  .00080891  00000-0  76793-3 0  9994","SITE":"AFETR","ECCENTRICITY":"0.00044310","INCLINATION":"53.0571","MEAN_MOTION_DDOT":"0.0000000000000","MEAN_MOTION_DOT":"0.00080891","BSTAR":"0.00076793000000","GP_ID":"212581180","PERIAPSIS":"366.791","MEAN_ANOMALY":"244.7911","NORAD_CAT_ID":"47569","LAUNCH_DATE":"2021-02-04","OBJECT_TYPE":"PAYLOAD","CENTER_NAME":"EARTH","APOAPSIS":"372.771","MEAN_MOTION":"15.66203862","PERIOD":"91.942","TIME_SYSTEM":"UTC","TLE_LINE2":"2 47569  53.0571 228.9244 0004431 115.3563 244.7911 15.66203862 90524","OBJECT_ID":"2021-009X","SEMIMAJOR_AXIS":"6747.916"},{"LAUNCH_DATE":"2021-02-04","NORAD_CAT_ID":"47570","OBJECT_TYPE":"PAYLOAD","MEAN_ANOMALY":"278.3639","APOAPSIS":"548.168","CENTER_NAME":"EARTH","PERIOD":"95.592","MEAN_MOTION":"15.06395836","SEMIMAJOR_AXIS":"6925.361","OBJECT_ID":"2021-009Y","TIME_SYSTEM":"UTC","TLE_LINE2":"2 47570  53.0554 312.5155 0001360  81.7504 278.3639 15.06395836 89331","ELEMENT_SET_NO":"999","OBJECT_NAME":"STARLINK-1969","ARG_OF_PERICENTER":"81.7504","RA_OF_ASC_NODE":"312.5155","REV_AT_EPOCH":"8933","MEAN_ELEMENT_THEORY":"SGP4","FILE":"3574027","EPOCH":"2022-09-14T12:58:03.489024","REF_FRAME":"TEME","DECAY_DATE":null,"RCS_SIZE":"LARGE","EPHEMERIS_TYPE":"0","COUNTRY_CODE":"US","CLASSIFICATION_TYPE":"U","INCLINATION":"53.0554","SITE":"AFETR","TLE_LINE1":"1 47570U 21009Y   22257.54031816  .00001142  00000-0  95560-4 0  9998","ECCENTRICITY":"0.00013600","BSTAR":"0.00009556000000","MEAN_MOTION_DOT":"0.00001142","PERIAPSIS":"546.284","GP_ID":"212581930","MEAN_MOTION_DDOT":"0.0000000000000"},{"ELEMENT_SET_NO":"999","OBJECT_NAME":"STARLINK-1970","ARG_OF_PERICENTER":"75.1756","RA_OF_ASC_NODE":"322.7773","REV_AT_EPOCH":"8918","EPOCH":"2022-09-14T11:37:06.695328","FILE":"3574287","MEAN_ELEMENT_THEORY":"SGP4","RCS_SIZE":"LARGE","DECAY_DATE":null,"REF_FRAME":"TEME","COUNTRY_CODE":"US","EPHEMERIS_TYPE":"0","CLASSIFICATION_TYPE":"U","INCLINATION":"53.0561","TLE_LINE1":"1 47571U 21009Z   22257.48410527  .00000059  00000-0  22889-4 0  9992","SITE":"AFETR","ECCENTRICITY":"0.00013900","MEAN_MOTION_DOT":"0.00000059","BSTAR":"0.00002288900000","GP_ID":"212611346","PERIAPSIS":"546.262","MEAN_MOTION_DDOT":"0.0000000000000","NORAD_CAT_ID":"47571","LAUNCH_DATE":"2021-02-04","OBJECT_TYPE":"PAYLOAD","MEAN_ANOMALY":"284.9387","APOAPSIS":"548.188","CENTER_NAME":"EARTH","MEAN_MOTION":"15.06396272","PERIOD":"95.592","OBJECT_ID":"2021-009Z","SEMIMAJOR_AXIS":"6925.360","TIME_SYSTEM":"UTC","TLE_LINE2":"2 47571  53.0561 322.7773 0001390  75.1756 284.9387 15.06396272 89189"},{"SITE":"AFETR","TLE_LINE1":"1 47572U 21009AA  22257.59837566 -.00001512  00000-0 -82632-4 0  9990","ECCENTRICITY":"0.00015680","INCLINATION":"53.0551","MEAN_MOTION_DDOT":"0.0000000000000","BSTAR":"-0.00008263200000","MEAN_MOTION_DOT":"-0.00001512","GP_ID":"212611094","PERIAPSIS":"546.150","REV_AT_EPOCH":"8920","RA_OF_ASC_NODE":"322.2680","ARG_OF_PERICENTER":"79.8236","ELEMENT_SET_NO":"999","OBJECT_NAME":"STARLINK-1971","EPHEMERIS_TYPE":"0","COUNTRY_CODE":"US","CLASSIFICATION_TYPE":"U","MEAN_ELEMENT_THEORY":"SGP4","FILE":"3574287","EPOCH":"2022-09-14T14:21:39.657024","REF_FRAME":"TEME","DECAY_DATE":null,"RCS_SIZE":"LARGE","TIME_SYSTEM":"UTC","TLE_LINE2":"2 47572  53.0551 322.2680 0001568  79.8236 280.2930 15.06392726 89208","SEMIMAJOR_AXIS":"6925.371","OBJECT_ID":"2021-009AA","MEAN_ANOMALY":"280.2930","LAUNCH_DATE":"2021-02-04","NORAD_CAT_ID":"47572","OBJECT_TYPE":"PAYLOAD","APOAPSIS":"548.322","CENTER_NAME":"EARTH","PERIOD":"95.593","MEAN_MOTION":"15.06392726"}];
